[{"OBJECT_NAME":"STARLINK-32419","OBJECT_ID":"2024-191S","EPOCH":"2026-03-09T22:41:36.160224","MEAN_MOTION":15.27559089,"ECCENTRICITY":3.759e-5,"INCLINATION":43.0018,"RA_OF_ASC_NODE":153.2252,"ARG_OF_PERICENTER":319.1931,"MEAN_ANOMALY":40.8892,"EPHEMERIS_TYPE":0,"CLASSIFICATION_TYPE":"U","NORAD_CAT_ID":61637,"ELEMENT_SET_NO":999,"REV_AT_EPOCH":7757,"BSTAR":-1.5465989e-5,"MEAN_MOTION_DOT":-6.87e-6,"MEAN_MOTION_DDOT":0},{"OBJECT_NAME":"DMSP 5D-2 F14 DEB","OBJECT_ID":"1997-012G","EPOCH":"2026-03-09T18:05:19.087296","MEAN_MOTION":15.2878374,"ECCENTRICITY":0.00491251,"INCLINATION":99.2047,"RA_OF_ASC_NODE":151.8456,"ARG_OF_PERICENTER":247.1908,"MEAN_ANOMALY":112.4133,"EPHEMERIS_TYPE":0,"CLASSIFICATION_TYPE":"U","NORAD_CAT_ID":62936,"ELEMENT_SET_NO":999,"REV_AT_EPOCH":6425,"BSTAR":0.05046686,"MEAN_MOTION_DOT":0.01624988,"MEAN_MOTION_DDOT":0}]
